BEIDOU-2 M4             
1 38251U 12018B   26128.92300840 -.00000036  00000+0  00000+0 0  9994
2 38251  55.6931 305.4151 0010883 282.3733  77.4996  1.86229854 95211
ARIRANG-3 (KOMPSAT-3)   
1 38338U 12025B   26130.87443204  .00000280  00000+0  64933-4 0  9997
2 38338  98.1154  88.9851 0004313 221.3556 138.7319 14.62172992745897
METOP-B                 
1 38771U 12049A   26130.81168572  .00000060  00000+0  47293-4 0  9996
2 38771  98.6530 183.0514 0003522  96.3866 263.7713 14.21422122707959
SJ-9A                   
1 38860U 12056A   26130.84603424  .00000861  00000+0  10556-3 0  9996
2 38860  97.6687 104.1569 0026228  23.6852 336.5564 14.85392169694045
COSMOS 2484 (RODNIK-S 6)
1 39059U 13001C   26130.79700542  .00000018  00000+0  55410-4 0  9994
2 39059  82.5015 245.1362 0027525 115.2459 245.1478 12.42938223603916
SARAL                   
1 39086U 13009A   26130.82103498  .00000047  00000+0  33115-4 0  9993
2 39086  98.5563 317.8612 0002691  56.5917 303.5524 14.32846668690255
STRAND-1                
1 39090U 13009E   26130.73845193  .00000192  00000+0  78880-4 0  9992
2 39090  98.3917 311.8964 0008342 351.4564   8.6480 14.37140751691686
BRITE-AUSTRIA           
1 39091U 13009F   26130.73525956  .00000115  00000+0  53720-4 0  9996
2 39091  98.3988 311.0998 0010080 359.1913   0.9256 14.36526856691677
GAOFEN-1                
1 39150U 13018A   26130.85875113  .00000204  00000+0  36521-4 0  9997
2 39150  97.9099 203.6818 0017813  30.7424 329.4825 14.76534155702734
NEE-01 PEGASO           
1 39151U 13018B   26130.34628774  .00002213  00000+0  21600-3 0  9994
2 39151  98.1173 273.2628 0011214 290.5828  69.4187 14.93474540705056
PROBA-V                 
1 39159U 13021A   26130.86811860  .00000057  00000+0  43173-4 0  9997
2 39159  98.3569 111.3218 0003115 232.6807 127.4089 14.23588921675804
ARIRANG-5 (KOMPSAT-5)   
1 39227U 13042A   26130.85480682  .00001719  00000+0  12696-3 0  9990
2 39227  97.6222 318.0789 0001930 265.7555  94.3450 15.04561740698244
GONETS-M 5              
1 39249U 13048A   26130.84489230 -.00000026  00000+0 -25683-3 0  9999
2 39249  82.4858   6.6646 0015896 297.4225  62.5237 12.42890595574244
GONETS-M 7              
1 39251U 13048C   26130.80853307 -.00000063  00000+0 -52666-3 0  9990
2 39251  82.4924   9.5894 0016717 298.7147  61.2253 12.42913290574194
FENGYUN 3C              
1 39260U 13052A   26130.86939273  .00000050  00000+0  46646-4 0  9994
2 39260  98.4962 106.4631 0015562 127.8587 232.3998 14.15746238653289
CASSIOPE                
1 39265U 13055A   26130.79389903  .00020221 -60817-6  23082-3 0  9993
2 39265  80.9134 112.0213 0301325 187.7894 171.8610 15.22492659661978
APRIZESAT 7             
1 39416U 13066A   26130.85350527  .00000773  00000+0  82151-4 0  9993
2 39416  97.7684  84.6180 0035265 337.6013  22.3663 14.91477394675668
ZACUBE-1 (TSHEPISOSAT)  
1 39417U 13066B   26130.87674647  .00003148  00000+0  24767-3 0  9995
2 39417  97.8121  93.0117 0042174  18.7408 341.5357 15.00896866675130
APRIZESAT 8             
1 39425U 13066K   26130.81050970  .00000790  00000+0  91449-4 0  9997
2 39425  97.8199  78.8081 0047189  50.1706 310.3649 14.87570617674119
TRITON-1                
1 39427U 13066M   26130.81394812  .00001338  00000+0  16587-3 0  9993
2 39427  97.8260  41.4724 0090340 357.2182   2.8516 14.81538661668550
