OBJECT_NAME,OBJECT_ID,EPOCH,MEAN_MOTION,ECCENTRICITY,INCLINATION,RA_OF_ASC_NODE,ARG_OF_PERICENTER,MEAN_ANOMALY,EPHEMERIS_TYPE,CLASSIFICATION_TYPE,NORAD_CAT_ID,ELEMENT_SET_NO,REV_AT_EPOCH,BSTAR,MEAN_MOTION_DOT,MEAN_MOTION_DDOT
BEIDOU-2 M4,2012-018B,2026-05-08T22:09:07.925760,1.86229854,.00108839,55.6931,305.4151,282.3733,77.4996,0,U,38251,999,9521,0,-.36E-6,0
ARIRANG-3 (KOMPSAT-3),2012-025B,2026-05-10T20:59:10.928256,14.62172992,.0004313,98.1154,88.9851,221.3556,138.7319,0,U,38338,999,74589,.64933E-4,.28E-5,0
METOP-B,2012-049A,2026-05-10T19:28:49.646208,14.21422122,.0003522,98.6530,183.0514,96.3866,263.7713,0,U,38771,999,70795,.47293E-4,.6E-6,0
SJ-9A,2012-056A,2026-05-10T20:18:17.358336,14.85392169,.0026228,97.6687,104.1569,23.6852,336.5564,0,U,38860,999,69404,.10556E-3,.861E-5,0
COSMOS 2484 (RODNIK-S 6),2013-001C,2026-05-10T19:07:41.268288,12.42938223,.0027525,82.5015,245.1362,115.2459,245.1478,0,U,39059,999,60391,.5541E-4,.18E-6,0
SARAL,2013-009A,2026-05-10T19:42:17.422272,14.32846668,.0002691,98.5563,317.8612,56.5917,303.5524,0,U,39086,999,69025,.33115E-4,.47E-6,0
STRAND-1,2013-009E,2026-05-10T17:43:22.246752,14.37140751,.0008342,98.3917,311.8964,351.4564,8.6480,0,U,39090,999,69168,.7888E-4,.192E-5,0
BRITE-AUSTRIA,2013-009F,2026-05-10T17:38:46.425984,14.36526856,.001008,98.3988,311.0998,359.1913,0.9256,0,U,39091,999,69167,.5372E-4,.115E-5,0
GAOFEN-1,2013-018A,2026-05-10T20:36:36.097632,14.76534155,.0017813,97.9099,203.6818,30.7424,329.4825,0,U,39150,999,70273,.36521E-4,.204E-5,0
NEE-01 PEGASO,2013-018B,2026-05-10T08:18:39.260736,14.93474540,.0011214,98.1173,273.2628,290.5828,69.4187,0,U,39151,999,70505,.216E-3,.2213E-4,0
PROBA-V,2013-021A,2026-05-10T20:50:05.447040,14.23588921,.0003115,98.3569,111.3218,232.6807,127.4089,0,U,39159,999,67580,.43173E-4,.57E-6,0
ARIRANG-5 (KOMPSAT-5),2013-042A,2026-05-10T20:30:55.309248,15.04561740,.000193,97.6222,318.0789,265.7555,94.3450,0,U,39227,999,69824,.12696E-3,.1719E-4,0
GONETS-M 5,2013-048A,2026-05-10T20:16:38.694720,12.42890595,.0015896,82.4858,6.6646,297.4225,62.5237,0,U,39249,999,57424,-.25683E-3,-.26E-6,0
GONETS-M 7,2013-048C,2026-05-10T19:24:17.257248,12.42913290,.0016717,82.4924,9.5894,298.7147,61.2253,0,U,39251,999,57419,-.52666E-3,-.63E-6,0
FENGYUN 3C,2013-052A,2026-05-10T20:51:55.531872,14.15746238,.0015562,98.4962,106.4631,127.8587,232.3998,0,U,39260,999,65328,.46646E-4,.5E-6,0
CASSIOPE,2013-055A,2026-05-10T19:03:12.876192,15.22492659,.0301325,80.9134,112.0213,187.7894,171.8610,0,U,39265,999,66197,.23082E-3,.20221E-3,-.60817E-6
APRIZESAT 7,2013-066A,2026-05-10T20:29:02.855328,14.91477394,.0035265,97.7684,84.6180,337.6013,22.3663,0,U,39416,999,67566,.82151E-4,.773E-5,0
ZACUBE-1 (TSHEPISOSAT),2013-066B,2026-05-10T21:02:30.895008,15.00896866,.0042174,97.8121,93.0117,18.7408,341.5357,0,U,39417,999,67513,.24767E-3,.3148E-4,0
APRIZESAT 8,2013-066K,2026-05-10T19:27:08.038080,14.87570617,.0047189,97.8199,78.8081,50.1706,310.3649,0,U,39425,999,67411,.91449E-4,.79E-5,0
TRITON-1,2013-066M,2026-05-10T19:32:05.117568,14.81538661,.009034,97.8260,41.4724,357.2182,2.8516,0,U,39427,999,66855,.16587E-3,.1338E-4,0
